NORAD_CAT_ID,OBJECT_NAME,OBJECT_TYPE,EPOCH,MEAN_MOTION,ECCENTRICITY,INCLINATION,RA_OF_ASC_NODE,ARG_OF_PERICENTER,MEAN_ANOMALY,BSTAR,MEAN_MOTION_DOT,MEAN_MOTION_DDOT,TLE_LINE0,TLE_LINE1,TLE_LINE2,SEMIMAJOR_AXIS,PERIOD,APOGEE,PERIGEE,DECAYED
55748.0,STARLINK-5580,PAYLOAD,2023-05-12 12:00:00,14.98316877,0.0003531,70.0018,327.0162,267.7058,216.5476,0.0036943,0.00044252,0.0,0 STARLINK-5580,1 55748U 23028H   23132.50001157  .00044252  00000-0  36943-2 0  9998,2 55748  70.0018 327.0162 0003531 267.7058 216.5476 14.98316877  1304,6950.233,96.108,574.553,569.644,0.0
55748.0,STARLINK-5580,PAYLOAD,2023-05-12 22:00:00,14.98317909,0.0003547,70.0018,325.9656,273.7748,297.3406,0.0018353,0.00021868,0.0,0 STARLINK-5580,1 55748U 23028H   23132.91667824  .00021868  00000-0  18353-2 0  9995,2 55748  70.0018 325.9656 0003547 273.7748 297.3406 14.98317909 11486,6950.23,96.108,574.561,569.63,0.0
55748.0,STARLINK-5580,PAYLOAD,2023-05-12 22:39:47,14.98318234,0.0003498,69.9995,325.8964,270.0204,90.0554,0.00026411,3.059e-05,0.0,0 STARLINK-5580,1 55748U 23028H   23132.94430364  .00003059  00000-0  26411-3 0  9992,2 55748  69.9995 325.8964 0003498 270.0204  90.0554 14.98318234 11495,6950.229,96.108,574.525,569.663,0.0
55748.0,STARLINK-5580,PAYLOAD,2023-05-13 13:05:00,14.98329597,0.0003416,69.9997,324.381,271.2585,88.8183,4.713e-05,4.69e-06,0.0,0 STARLINK-5580,1 55748U 23028H   23133.54514072  .00000469  00000-0  47130-4 0  9992,2 55748  69.9997 324.3810 0003416 271.2585  88.8183 14.98329597 11583,6950.194,96.107,574.433,569.685,0.0
55748.0,STARLINK-5580,PAYLOAD,2023-05-13 19:29:32,14.98330289,0.0003495,69.9997,323.7087,272.3951,87.6808,8.4009e-05,9.09e-06,0.0,0 STARLINK-5580,1 55748U 23028H   23133.81217924  .00000909  00000-0  84009-4 0  9993,2 55748  69.9997 323.7087 0003495 272.3951  87.6808 14.98330289 11624,6950.192,96.107,574.486,569.628,0.0
55748.0,STARLINK-5580,PAYLOAD,2023-05-13 21:05:40,14.9833108,0.0003453,69.9998,323.5402,271.9247,88.1516,9.4679e-05,1.037e-05,0.0,0 STARLINK-5580,1 55748U 23028H   23133.87893840  .00001037  00000-0  94679-4 0  9993,2 55748  69.9998 323.5402 0003453 271.9247  88.1516 14.98331080 11634,6950.19,96.107,574.454,569.655,0.0
55748.0,STARLINK-5580,PAYLOAD,2023-05-14 13:07:01,14.98327478,0.0003252,70.0001,321.8571,269.3137,90.765,3.1347e-05,2.81e-06,0.0,0 STARLINK-5580,1 55748U 23028H   23134.54654202  .00000281  00000-0  31347-4 0  9998,2 55748  70.0001 321.8571 0003252 269.3137  90.7650 14.98327478 11731,6950.201,96.107,574.326,569.805,0.0
55748.0,STARLINK-5580,PAYLOAD,2023-05-14 19:31:33,14.98329425,0.0003298,69.9999,321.1834,269.9358,90.1424,-2.963e-06,-1.28e-06,0.0,0 STARLINK-5580,1 55748U 23028H   23134.81358190 -.00000128  00000-0 -29630-5 0  9990,2 55748  69.9999 321.1834 0003298 269.9358  90.1424 14.98329425 11771,6950.195,96.107,574.352,569.767,0.0
55748.0,STARLINK-5580,PAYLOAD,2023-05-14 21:07:41,14.98329841,0.0003291,69.9999,321.015,270.0027,90.0755,1.6988e-06,-7.3e-07,0.0,0 STARLINK-5580,1 55748U 23028H   23134.88034149 -.00000073  00000-0  16988-5 0  9992,2 55748  69.9999 321.0150 0003291 270.0027  90.0755 14.98329841 11789,6950.193,96.107,574.346,569.771,0.0
55748.0,STARLINK-5580,PAYLOAD,2023-05-15 13:09:02,14.98331741,0.0003285,69.9998,319.3316,270.0546,90.0237,-1.5559e-05,-2.79e-06,0.0,0 STARLINK-5580,1 55748U 23028H   23135.54794053 -.00000279  00000-0 -15559-4 0  9994,2 55748  69.9998 319.3316 0003285 270.0546  90.0237 14.98331741 11889,6950.188,96.107,574.336,569.769,0.0
55748.0,STARLINK-5580,PAYLOAD,2023-05-15 16:21:18,14.98331585,0.000329,69.9999,318.9949,270.0595,90.0187,-1.6287e-05,-2.87e-06,0.0,0 STARLINK-5580,1 55748U 23028H   23135.68146045 -.00000287  00000-0 -16287-4 0  9999,2 55748  69.9999 318.9949 0003290 270.0595  90.0187 14.98331585 11900,6950.188,96.107,574.34,569.766,0.0
55748.0,STARLINK-5580,PAYLOAD,2023-05-16 05:10:22,14.98330049,0.0003288,69.9999,317.6482,270.137,89.9413,-5.9354e-06,-1.64e-06,0.0,0 STARLINK-5580,1 55748U 23028H   23136.21554084 -.00000164  00000-0 -59354-5 0  9992,2 55748  69.9999 317.6482 0003288 270.1370  89.9413 14.98330049 11988,6950.193,96.107,574.343,569.773,0.0
55748.0,STARLINK-5580,PAYLOAD,2023-05-16 13:11:03,14.98327812,0.0003302,69.9998,316.8067,268.071,92.0071,-2.5747e-06,-1.24e-06,0.0,0 STARLINK-5580,1 55748U 23028H   23136.54934207 -.00000124  00000-0 -25747-5 0  9992,2 55748  69.9998 316.8067 0003302 268.0710  92.0071 14.98327812 12034,6950.2,96.107,574.36,569.77,0.0
55748.0,STARLINK-5580,PAYLOAD,2023-05-16 17:59:27,14.98327863,0.0003308,69.9999,316.3017,268.4307,91.6473,-1.9439e-06,-1.16e-06,0.0,0 STARLINK-5580,1 55748U 23028H   23136.74962223 -.00000116  00000-0 -19439-5 0  9995,2 55748  69.9999 316.3017 0003308 268.4307  91.6473 14.98327863 12067,6950.199,96.107,574.364,569.765,0.0
55748.0,STARLINK-5580,PAYLOAD,2023-05-17 11:36:55,14.98329532,0.0003299,69.9997,314.4501,269.932,90.1461,1.2004e-05,5e-07,0.0,0 STARLINK-5580,1 55748U 23028H   23137.48398112  .00000050  00000-0  12004-4 0  9992,2 55748  69.9997 314.4501 0003299 269.9320  90.1461 14.98329532 12170,6950.194,96.107,574.352,569.766,0.0
55748.0,STARLINK-5580,PAYLOAD,2023-05-17 21:13:44,14.9833015,0.0003317,69.9999,313.4402,269.9323,90.1456,1.8467e-05,1.27e-06,0.0,0 STARLINK-5580,1 55748U 23028H   23137.88454046  .00000127  00000-0  18467-4 0  9999,2 55748  69.9999 313.4402 0003317 269.9323  90.1456 14.98330150 12234,6950.192,96.107,574.363,569.752,0.0
55748.0,STARLINK-5580,PAYLOAD,2023-05-18 11:38:56,14.98328225,0.0003349,69.9996,311.9248,269.6177,90.4598,1.9173e-05,1.36e-06,0.0,0 STARLINK-5580,1 55748U 23028H   23138.48538138  .00000136  00000-0  19173-4 0  9996,2 55748  69.9996 311.9248 0003349 269.6177  90.4598 14.98328225 12321,6950.198,96.107,574.391,569.736,0.0
55748.0,STARLINK-5580,PAYLOAD,2023-05-18 13:15:05,14.98328356,0.0003354,69.9996,311.7564,269.5469,90.5306,2.0771e-05,1.55e-06,0.0,0 STARLINK-5580,1 55748U 23028H   23138.55214126  .00000155  00000-0  20771-4 0  9999,2 55748  69.9996 311.7564 0003354 269.5469  90.5306 14.98328356 12333,6950.198,96.107,574.394,569.732,0.0
55748.0,STARLINK-5580,PAYLOAD,2023-05-18 21:15:45,14.98331034,0.0003366,69.9996,310.9145,269.1699,90.9075,2.3969e-05,1.93e-06,0.0,0 STARLINK-5580,1 55748U 23028H   23138.88593932  .00000193  00000-0  23969-4 0  9994,2 55748  69.9996 310.9145 0003366 269.1699  90.9075 14.98331034 12382,6950.19,96.107,574.394,569.715,0.0
55748.0,STARLINK-5580,PAYLOAD,2023-05-19 18:05:29,14.983313,0.0003374,69.9996,308.7263,269.1576,90.9197,1.4725e-05,8.3e-07,0.0,0 STARLINK-5580,1 55748U 23028H   23139.75381908  .00000083  00000-0  14725-4 0  9997,2 55748  69.9996 308.7263 0003374 269.1576  90.9197 14.98331300 12517,6950.189,96.107,574.399,569.709,0.0
55748.0,STARLINK-5580,PAYLOAD,2023-05-19 21:17:46,14.98332161,0.0003366,69.9996,308.3896,269.1699,90.9074,2.3515e-05,1.88e-06,0.0,0 STARLINK-5580,1 55748U 23028H   23139.88733814  .00000188  00000-0  23515-4 0  9991,2 55748  69.9996 308.3896 0003366 269.1699  90.9074 14.98332161 12534,6950.186,96.107,574.391,569.712,0.0
55748.0,STARLINK-5580,PAYLOAD,2023-05-20 18:07:30,14.98317957,0.0003276,69.9994,306.2014,269.6708,90.4076,0.00041129,4.816e-05,0.0,0 STARLINK-5580,1 55748U 23028H   23140.75521523  .00004816  00000-0  41129-3 0  9993,2 55748  69.9994 306.2014 0003276 269.6708  90.4076 14.98317957 12664,6950.23,96.108,574.372,569.818,0.0
55748.0,STARLINK-5580,PAYLOAD,2023-05-20 19:43:38,14.98338359,0.0003377,69.9995,306.0331,269.1077,90.9695,7.1914e-05,7.65e-06,0.0,0 STARLINK-5580,1 55748U 23028H   23140.82197070  .00000765  00000-0  71914-4 0  9992,2 55748  69.9995 306.0331 0003377 269.1077  90.9695 14.98338359 12673,6950.167,96.106,574.379,569.685,0.0
55748.0,STARLINK-5580,PAYLOAD,2023-05-20 21:19:46,14.98339139,0.0003371,69.9996,305.8647,269.124,90.9533,7.9658e-05,8.58e-06,0.0,0 STARLINK-5580,1 55748U 23028H   23140.88872966  .00000858  00000-0  79658-4 0  9998,2 55748  69.9996 305.8647 0003371 269.1240  90.9533 14.98339139 12686,6950.165,96.106,574.373,569.687,0.0
55748.0,STARLINK-5580,PAYLOAD,2023-05-21 10:08:51,14.98328441,0.0003079,70.0015,304.5187,269.9498,90.1308,-3.5533e-05,-5.17e-06,0.0,0 STARLINK-5580,1 55748U 23028H   23141.42282007 -.00000517  00000-0 -35533-4 0  9998,2 55748  70.0015 304.5187 0003079 269.9498  90.1308 14.98328441 12769,6950.198,96.107,574.203,569.923,0.0
55748.0,STARLINK-5580,PAYLOAD,2023-05-21 11:44:59,14.98327848,0.0003089,70.0015,304.3503,269.9816,90.0989,-4.1536e-05,-5.89e-06,0.0,0 STARLINK-5580,1 55748U 23028H   23141.48958061 -.00000589  00000-0 -41536-4 0  9993,2 55748  70.0015 304.3503 0003089 269.9816  90.0989 14.98327848 12779,6950.2,96.107,574.211,569.918,0.0
55748.0,STARLINK-5580,PAYLOAD,2023-05-21 18:09:32,14.98322888,0.0003151,70.0007,303.6772,269.5879,90.4919,-7.954e-05,-1.042e-05,0.0,0 STARLINK-5580,1 55748U 23028H   23141.75662528 -.00001042  00000-0 -79540-4 0  9994,2 55748  70.0007 303.6772 0003151 269.5879  90.4919 14.98322888 12816,6950.215,96.107,574.27,569.89,0.0
55748.0,STARLINK-5580,PAYLOAD,2023-05-22 03:46:20,14.98328305,0.0003195,70.0006,302.6674,270.4647,89.6146,-4.0765e-05,-5.79e-06,0.0,0 STARLINK-5580,1 55748U 23028H   23142.15718205 -.00000579  00000-0 -40765-4 0  9994,2 55748  70.0006 302.6674 0003195 270.4647  89.6146 14.98328305 12875,6950.198,96.107,574.284,569.843,0.0
55748.0,STARLINK-5580,PAYLOAD,2023-05-22 16:35:24,14.9833569,0.0003363,70.0002,301.3204,271.1807,88.8967,4.4249e-05,4.35e-06,0.0,0 STARLINK-5580,1 55748U 23028H   23142.69125387  .00000435  00000-0  44249-4 0  9996,2 55748  70.0002 301.3204 0003363 271.1807  88.8967 14.98335690 12955,6950.175,96.107,574.378,569.703,0.0
55748.0,STARLINK-5580,PAYLOAD,2023-05-22 21:23:48,14.98337489,0.0003297,69.9998,300.8153,271.1918,88.8864,2.9263e-05,2.56e-06,0.0,0 STARLINK-5580,1 55748U 23028H   23142.89153243  .00000256  00000-0  29263-4 0  9990,2 55748  69.9998 300.8153 0003297 271.1918  88.8864 14.98337489 12989,6950.17,96.107,574.326,569.743,0.0
